[{"OBJECT_NAME":"STARLINK-3578","OBJECT_ID":"2022-022S","EPOCH":"2026-03-09T05:44:13.825824","MEAN_MOTION":15.08839548,"ECCENTRICITY":0.00015104,"INCLINATION":53.2196,"RA_OF_ASC_NODE":11.1471,"ARG_OF_PERICENTER":81.7343,"MEAN_ANOMALY":278.382,"EPHEMERIS_TYPE":0,"CLASSIFICATION_TYPE":"U","NORAD_CAT_ID":51868,"ELEMENT_SET_NO":999,"REV_AT_EPOCH":22304,"BSTAR":2.0512154e-5,"MEAN_MOTION_DOT":3.8e-7,"MEAN_MOTION_DDOT":0},{"OBJECT_NAME":"SITRO-AIS 28","OBJECT_ID":"2024-039U","EPOCH":"2026-03-09T22:53:08.846304","MEAN_MOTION":14.92876764,"ECCENTRICITY":0.01445021,"INCLINATION":95.3938,"RA_OF_ASC_NODE":167.1162,"ARG_OF_PERICENTER":314.581,"MEAN_ANOMALY":44.3693,"EPHEMERIS_TYPE":0,"CLASSIFICATION_TYPE":"U","NORAD_CAT_ID":59071,"ELEMENT_SET_NO":999,"REV_AT_EPOCH":10993,"BSTAR":0.0004111707,"MEAN_MOTION_DOT":5.19e-5,"MEAN_MOTION_DDOT":0}]
